{"type": "FeatureCollection", "features": [ {"type": "Feature", "properties": {"norad_id": 40733, "name": "STAR ONE C4", "group": "active", "lat": 0.024970641349524574, "lon": 59.99555372075824, "alt_km": 35792.39940272156, "timestamp": "2025-12-01T03:58:49.244735+00:00", "meta": {"OBJECT_NAME": "STAR ONE C4", "OBJECT_ID": "2015-034B", "EPOCH": "2025-11-30T13:30:35.569152", "MEAN_MOTION": 1.00271187, "ECCENTRICITY": 0.0002022, "INCLINATION": 0.048, "RA_OF_ASC_NODE": 54.2192, "ARG_OF_PERICENTER": 230.4377, "MEAN_ANOMALY": 277.7027, "EPHEMERIS_TYPE": 0, "CLASSIFICATION_TYPE": "U", "NORAD_CAT_ID": 40733, "ELEMENT_SET_NO": 999, "REV_AT_EPOCH": 3802, "BSTAR": 0, "MEAN_MOTION_DOT": -2.43e-06, "MEAN_MOTION_DDOT": 0, "GROUP": "active"}, "tle": {"line1": "1 40733U 15034B   25334.56291168 -.00000243  00000+0  00000+0 0  9993", "line2": "2 40733   0.0480  54.2192 0002022 230.4377 277.7027  1.00271187 38028"}}, "geometry": {"type": "Point", "coordinates": [59.99555372075824, 0.024970641349524574]}}, {"type": "Feature", "properties": {"norad_id": 40746, "name": "WGS F7 (USA 263)", "group": "active", "lat": 0.0030902428286537762, "lon": -55.02051450952415, "alt_km": 35786.87887476472, "timestamp": "2025-12-01T03:58:49.244747+00:00", "meta": {"OBJECT_NAME": "WGS F7 (USA 263)", "OBJECT_ID": "2015-036A", "EPOCH": "2025-11-30T18:05:57.099840", "MEAN_MOTION": 1.00269729, "ECCENTRICITY": 5.43e-05, "INCLINATION": 0.0126, "RA_OF_ASC_NODE": 295.7206, "ARG_OF_PERICENTER": 272.9129, "MEAN_ANOMALY": 307.7499, "EPHEMERIS_TYPE": 0, "CLASSIFICATION_TYPE": "U", "NORAD_CAT_ID": 40746, "ELEMENT_SET_NO": 999, "REV_AT_EPOCH": 3788, "BSTAR": 0, "MEAN_MOTION_DOT": 3.9e-07, "MEAN_MOTION_DDOT": 0, "GROUP": "active"}, "tle": {"line1": "1 40746U 15036A   25334.75413310  .00000039  00000+0  00000+0 0  9997", "line2": "2 40746   0.0126 295.7206 0000543 272.9129 307.7499  1.00269729 37888"}}, "geometry": {"type": "Point", "coordinates": [-55.02051450952415, 0.0030902428286537762]}}, {"type": "Feature", "properties": {"norad_id": 40880, "name": "GSAT-6", "group": "active", "lat": 1.0970828044319367, "lon": -147.5103570373919, "alt_km": 35776.243285617915, "timestamp": "2025-12-01T03:58:49.244759+00:00", "meta": {"OBJECT_NAME": "GSAT-6", "OBJECT_ID": "2015-041A", "EPOCH": "2025-11-30T19:22:23.731104", "MEAN_MOTION": 1.00270082, "ECCENTRICITY": 0.0003029, "INCLINATION": 1.4058, "RA_OF_ASC_NODE": 85.1976, "ARG_OF_PERICENTER": 164.7389, "MEAN_ANOMALY": 193.1366, "EPHEMERIS_TYPE": 0, "CLASSIFICATION_TYPE": "U", "NORAD_CAT_ID": 40880, "ELEMENT_SET_NO": 999, "REV_AT_EPOCH": 3760, "BSTAR": 0, "MEAN_MOTION_DOT": -1.38e-06, "MEAN_MOTION_DDOT": 0, "GROUP": "active"}, "tle": {"line1": "1 40880U 15041A   25334.80721911 -.00000138  00000+0  00000+0 0  9998", "line2": "2 40880   1.4058  85.1976 0003029 164.7389 193.1366  1.00270082 37603"}}, "geometry": {"type": "Point", "coordinates": [-147.5103570373919, 1.0970828044319367]}}, {"type": "Feature", "properties": {"norad_id": 40882, "name": "INMARSAT 5-F3", "group": "active", "lat": -0.011235265586261546, "lon": -50.47220891503272, "alt_km": 35788.793982819196, "timestamp": "2025-12-01T03:58:49.244772+00:00", "meta": {"OBJECT_NAME": "INMARSAT 5-F3", "OBJECT_ID": "2015-042A", "EPOCH": "2025-11-30T18:07:19.470144", "MEAN_MOTION": 1.00271331, "ECCENTRICITY": 6.61e-05, "INCLINATION": 0.0181, "RA_OF_ASC_NODE": 341.4927, "ARG_OF_PERICENTER": 167.7164, "MEAN_ANOMALY": 12.068, "EPHEMERIS_TYPE": 0, "CLASSIFICATION_TYPE": "U", "NORAD_CAT_ID": 40882, "ELEMENT_SET_NO": 999, "REV_AT_EPOCH": 3758, "BSTAR": 0, "MEAN_MOTION_DOT": 7.2e-07, "MEAN_MOTION_DDOT": 0, "GROUP": "active"}, "tle": {"line1": "1 40882U 15042A   25334.75508646  .00000072  00000+0  00000+0 0  9999", "line2": "2 40882   0.0181 341.4927 0000661 167.7164  12.0680  1.00271331 37587"}}, "geometry": {"type": "Point", "coordinates": [-50.47220891503272, -0.011235265586261546]}}, {"type": "Feature", "properties": {"norad_id": 40887, "name": "MUOS-4", "group": "active", "lat": 1.0406939048994677, "lon": -154.7927944580054, "alt_km": 35998.50716984917, "timestamp": "2025-12-01T03:58:49.244783+00:00", "meta": {"OBJECT_NAME": "MUOS-4", "OBJECT_ID": "2015-044A", "EPOCH": "2025-11-30T19:20:16.435392", "MEAN_MOTION": 1.00271397, "ECCENTRICITY": 0.0051828, "INCLINATION": 3.9613, "RA_OF_ASC_NODE": 40.6946, "ARG_OF_PERICENTER": 358.4672, "MEAN_ANOMALY": 35.8966, "EPHEMERIS_TYPE": 0, "CLASSIFICATION_TYPE": "U", "NORAD_CAT_ID": 40887, "ELEMENT_SET_NO": 999, "REV_AT_EPOCH": 3757, "BSTAR": 0, "MEAN_MOTION_DOT": -7.3e-07, "MEAN_MOTION_DDOT": 0, "GROUP": "active"}, "tle": {"line1": "1 40887U 15044A   25334.80574578 -.00000073  00000+0  00000+0 0  9991", "line2": "2 40887   3.9613  40.6946 0051828 358.4672  35.8966  1.00271397 37578"}}, "geometry": {"type": "Point", "coordinates": [-154.7927944580054, 1.0406939048994677]}}, {"type": "Feature", "properties": {"norad_id": 40892, "name": "TJS-1", "group": "active", "lat": -0.022076907703762038, "lon": -75.03653926492574, "alt_km": 35765.808380799856, "timestamp": "2025-12-01T03:58:49.244795+00:00", "meta": {"OBJECT_NAME": "TJS-1", "OBJECT_ID": "2015-046A", "EPOCH": "2025-11-30T19:42:59.259744", "MEAN_MOTION": 1.00270562, "ECCENTRICITY": 0.000624, "INCLINATION": 0.0149, "RA_OF_ASC_NODE": 346.8983, "ARG_OF_PERICENTER": 336.1668, "MEAN_ANOMALY": 197.6763, "EPHEMERIS_TYPE": 0, "CLASSIFICATION_TYPE": "U", "NORAD_CAT_ID": 40892, "ELEMENT_SET_NO": 999, "REV_AT_EPOCH": 3758, "BSTAR": 0, "MEAN_MOTION_DOT": -1.34e-06, "MEAN_MOTION_DDOT": 0, "GROUP": "active"}, "tle": {"line1": "1 40892U 15046A   25334.82151921 -.00000134  00000+0  00000+0 0  9992", "line2": "2 40892   0.0149 346.8983 0006240 336.1668 197.6763  1.00270562 37580"}}, "geometry": {"type": "Point", "coordinates": [-75.03653926492574, -0.022076907703762038]}}, {"type": "Feature", "properties": {"norad_id": 40895, "name": "EXPRESS-AM8", "group": "active", "lat": 0.0010211655799190337, "lon": 115.97656392005568, "alt_km": 35783.53632680298, "timestamp": "2025-12-01T03:58:49.244807+00:00", "meta": {"OBJECT_NAME": "EXPRESS-AM8", "OBJECT_ID": "2015-048A", "EPOCH": "2025-11-28T17:15:31.917024", "MEAN_MOTION": 1.00271986, "ECCENTRICITY": 5.998e-05, "INCLINATION": 0.0182, "RA_OF_ASC_NODE": 292.678, "ARG_OF_PERICENTER": 182.0763, "MEAN_ANOMALY": 198.0164, "EPHEMERIS_TYPE": 0, "CLASSIFICATION_TYPE": "U", "NORAD_CAT_ID": 40895, "ELEMENT_SET_NO": 999, "REV_AT_EPOCH": 3733, "BSTAR": 0, "MEAN_MOTION_DOT": -9.1e-07, "MEAN_MOTION_DDOT": 0, "GROUP": "active"}, "tle": {"line1": "1 40895U 15048A   25332.71911941 -.00000091  00000+0  00000+0 0  9991", "line2": "2 40895   0.0182 292.6780 0000599 182.0763 198.0164  1.00271986 37332"}}, "geometry": {"type": "Point", "coordinates": [115.97656392005568, 0.0010211655799190337]}}, {"type": "Feature", "properties": {"norad_id": 40908, "name": "LILACSAT-2", "group": "active", "lat": 29.584573226223736, "lon": -175.51825328183634, "alt_km": 432.90272241583625, "timestamp": "2025-12-01T03:58:49.244818+00:00", "meta": {"OBJECT_NAME": "LILACSAT-2", "OBJECT_ID": "2015-049K", "EPOCH": "2025-11-30T21:06:40.595328", "MEAN_MOTION": 15.44194483, "ECCENTRICITY": 0.00063, "INCLINATION": 97.4934, "RA_OF_ASC_NODE": 359.9012, "ARG_OF_PERICENTER": 248.3918, "MEAN_ANOMALY": 111.6659, "EPHEMERIS_TYPE": 0, "CLASSIFICATION_TYPE": "U", "NORAD_CAT_ID": 40908, "ELEMENT_SET_NO": 999, "REV_AT_EPOCH": 56507, "BSTAR": 0.0003793, "MEAN_MOTION_DOT": 0.00017338, "MEAN_MOTION_DDOT": 0, "GROUP": "active"}, "tle": {"line1": "1 40908U 15049K   25334.87963652  .00017338  00000+0  37930-3 0  9999", "line2": "2 40908  97.4934 359.9012 0006300 248.3918 111.6659 15.44194483565077"}}, "geometry": {"type": "Point", "coordinates": [-175.51825328183634, 29.584573226223736]}}, {"type": "Feature", "properties": {"norad_id": 40920, "name": "COSMOS 2507 (RODNIK-S 13)", "group": "active", "lat": 40.119825950304524, "lon": 16.550056967681133, "alt_km": 1489.3573358916083, "timestamp": "2025-12-01T03:58:49.244828+00:00", "meta": {"OBJECT_NAME": "COSMOS 2507 (RODNIK-S 13)", "OBJECT_ID": "2015-050A", "EPOCH": "2025-11-30T19:30:23.754816", "MEAN_MOTION": 12.42918927, "ECCENTRICITY": 0.0010274, "INCLINATION": 82.4928, "RA_OF_ASC_NODE": 203.1489, "ARG_OF_PERICENTER": 61.6196, "MEAN_ANOMALY": 298.5918, "EPHEMERIS_TYPE": 0, "CLASSIFICATION_TYPE": "U", "NORAD_CAT_ID": 40920, "ELEMENT_SET_NO": 999, "REV_AT_EPOCH": 46221, "BSTAR": 0.00013272, "MEAN_MOTION_DOT": 2.8e-07, "MEAN_MOTION_DDOT": 0, "GROUP": "active"}, "tle": {"line1": "1 40920U 15050A   25334.81277494  .00000028  00000+0  13272-3 0  9992", "line2": "2 40920  82.4928 203.1489 0010274  61.6196 298.5918 12.42918927462212"}}, "geometry": {"type": "Point", "coordinates": [16.550056967681133, 40.119825950304524]}}, {"type": "Feature", "properties": {"norad_id": 40921, "name": "COSMOS 2508 (RODNIK-S 14)", "group": "active", "lat": -10.507464470638329, "lon": -159.89213972429502, "alt_km": 1501.1115993156918, "timestamp": "2025-12-01T03:58:49.244837+00:00", "meta": {"OBJECT_NAME": "COSMOS 2508 (RODNIK-S 14)", "OBJECT_ID": "2015-050B", "EPOCH": "2025-11-30T20:18:34.737696", "MEAN_MOTION": 12.42905483, "ECCENTRICITY": 0.0014483, "INCLINATION": 82.488, "RA_OF_ASC_NODE": 201.7091, "ARG_OF_PERICENTER": 94.6556, "MEAN_ANOMALY": 265.6178, "EPHEMERIS_TYPE": 0, "CLASSIFICATION_TYPE": "U", "NORAD_CAT_ID": 40921, "ELEMENT_SET_NO": 999, "REV_AT_EPOCH": 46220, "BSTAR": 0.0002057, "MEAN_MOTION_DOT": 3.8e-07, "MEAN_MOTION_DDOT": 0, "GROUP": "active"}, "tle": {"line1": "1 40921U 15050B   25334.84623539  .00000038  00000+0  20570-3 0  9991", "line2": "2 40921  82.4880 201.7091 0014483  94.6556 265.6178 12.42905483462200"}}, "geometry": {"type": "Point", "coordinates": [-159.89213972429502, -10.507464470638329]}}]}